{
  "type": "FeatureCollection",
  "features": [
    {
      "type": "Feature",
      "properties": {
        "norad_id": 33924,
        "name": "COSMOS 2251 DEB",
        "group": "cosmos-2251-debris",
        "lat": -71.53565055425383,
        "lon": 129.6292619354423,
        "alt_km": 798.1745032528906,
        "timestamp": "2025-12-25T09:48:52.682202+00:00",
        "meta_object_name": "COSMOS 2251 DEB",
        "meta_object_id": "1993-036ED",
        "meta_epoch": "2025-12-25T03:09:43.741728",
        "meta_mean_motion": 13.50239506,
        "meta_eccentricity": 0.0403802,
        "meta_inclination": 73.913,
        "meta_ra_of_asc_node": 250.2824,
        "meta_arg_of_pericenter": 283.5462,
        "meta_mean_anomaly": 72.0972,
        "meta_ephemeris_type": 0,
        "meta_classification_type": "U",
        "meta_norad_cat_id": 33924,
        "meta_element_set_no": 999,
        "meta_rev_at_epoch": 82906,
        "meta_bstar": 0.00043505,
        "meta_mean_motion_dot": 4.37e-06,
        "meta_mean_motion_ddot": 0,
        "tle_line1": "1 33924U 93036ED  25359.13175627  .00000437  00000+0  43505-3 0  9991",
        "tle_line2": "2 33924  73.9130 250.2824 0403802 283.5462  72.0972 13.50239506829062"
      },
      "geometry": {
        "type": "Point",
        "coordinates": [
          129.6292619354423,
          -71.53565055425383
        ]
      }
    },
    {
      "type": "Feature",
      "properties": {
        "norad_id": 33928,
        "name": "COSMOS 2251 DEB",
        "group": "cosmos-2251-debris",
        "lat": -68.8480464234627,
        "lon": -19.468789466520008,
        "alt_km": 705.3164460559983,
        "timestamp": "2025-12-25T09:48:52.682212+00:00",
        "meta_object_name": "COSMOS 2251 DEB",
        "meta_object_id": "1993-036EH",
        "meta_epoch": "2025-12-24T19:13:57.193824",
        "meta_mean_motion": 14.47426209,
        "meta_eccentricity": 0.00620303,
        "meta_inclination": 73.9253,
        "meta_ra_of_asc_node": 29.8554,
        "meta_arg_of_pericenter": 321.5269,
        "meta_mean_anomaly": 38.1474,
        "meta_ephemeris_type": 0,
        "meta_classification_type": "U",
        "meta_norad_cat_id": 33928,
        "meta_element_set_no": 999,
        "meta_rev_at_epoch": 88819,
        "meta_bstar": 0.00024854441,
        "meta_mean_motion_dot": 9.04e-06,
        "meta_mean_motion_ddot": 0,
        "tle_line1": "1 33928U 93036EH  25358.80135641  .00000904  00000+0  24854-3 0  9995",
        "tle_line2": "2 33928  73.9253  29.8554 0062030 321.5269  38.1474 14.47426209888198"
      },
      "geometry": {
        "type": "Point",
        "coordinates": [
          -19.468789466520008,
          -68.8480464234627
        ]
      }
    },
    {
      "type": "Feature",
      "properties": {
        "norad_id": 33932,
        "name": "COSMOS 2251 DEB",
        "group": "cosmos-2251-debris",
        "lat": 26.79806151484454,
        "lon": -59.13502501563163,
        "alt_km": 737.3464079543301,
        "timestamp": "2025-12-25T09:48:52.682222+00:00",
        "meta_object_name": "COSMOS 2251 DEB",
        "meta_object_id": "1993-036EM",
        "meta_epoch": "2025-12-25T03:00:39.832992",
        "meta_mean_motion": 14.38793273,
        "meta_eccentricity": 0.0035947,
        "meta_inclination": 74.0343,
        "meta_ra_of_asc_node": 293.0735,
        "meta_arg_of_pericenter": 6.2935,
        "meta_mean_anomaly": 353.8663,
        "meta_ephemeris_type": 0,
        "meta_classification_type": "U",
        "meta_norad_cat_id": 33932,
        "meta_element_set_no": 999,
        "meta_rev_at_epoch": 88176,
        "meta_bstar": 0.00047833,
        "meta_mean_motion_dot": 1.455e-05,
        "meta_mean_motion_ddot": 0,
        "tle_line1": "1 33932U 93036EM  25359.12546103  .00001455  00000+0  47833-3 0  9999",
        "tle_line2": "2 33932  74.0343 293.0735 0035947   6.2935 353.8663 14.38793273881766"
      },
      "geometry": {
        "type": "Point",
        "coordinates": [
          -59.13502501563163,
          26.79806151484454
        ]
      }
    },
    {
      "type": "Feature",
      "properties": {
        "norad_id": 33933,
        "name": "COSMOS 2251 DEB",
        "group": "cosmos-2251-debris",
        "lat": -4.789344381512766,
        "lon": 35.676682858970125,
        "alt_km": 748.0991388161401,
        "timestamp": "2025-12-25T09:48:52.682233+00:00",
        "meta_object_name": "COSMOS 2251 DEB",
        "meta_object_id": "1993-036EN",
        "meta_epoch": "2025-12-24T20:26:18.619296",
        "meta_mean_motion": 14.33506993,
        "meta_eccentricity": 0.0071019,
        "meta_inclination": 74.0888,
        "meta_ra_of_asc_node": 38.0616,
        "meta_arg_of_pericenter": 42.8616,
        "meta_mean_anomaly": 317.804,
        "meta_ephemeris_type": 0,
        "meta_classification_type": "U",
        "meta_norad_cat_id": 33933,
        "meta_element_set_no": 999,
        "meta_rev_at_epoch": 87958,
        "meta_bstar": 0.00026965,
        "meta_mean_motion_dot": 7.41e-06,
        "meta_mean_motion_ddot": 0,
        "tle_line1": "1 33933U 93036EN  25358.85160439  .00000741  00000+0  26965-3 0  9993",
        "tle_line2": "2 33933  74.0888  38.0616 0071019  42.8616 317.8040 14.33506993879580"
      },
      "geometry": {
        "type": "Point",
        "coordinates": [
          35.676682858970125,
          -4.789344381512766
        ]
      }
    },
    {
      "type": "Feature",
      "properties": {
        "norad_id": 33934,
        "name": "COSMOS 2251 DEB",
        "group": "cosmos-2251-debris",
        "lat": -20.893450375062287,
        "lon": -97.29494867515932,
        "alt_km": 689.9612094132171,
        "timestamp": "2025-12-25T09:48:52.682243+00:00",
        "meta_object_name": "COSMOS 2251 DEB",
        "meta_object_id": "1993-036EP",
        "meta_epoch": "2025-12-24T23:01:14.752128",
        "meta_mean_motion": 14.59204416,
        "meta_eccentricity": 0.0015107,
        "meta_inclination": 74.0379,
        "meta_ra_of_asc_node": 77.2891,
        "meta_arg_of_pericenter": 200.8516,
        "meta_mean_anomaly": 159.2035,
        "meta_ephemeris_type": 0,
        "meta_classification_type": "U",
        "meta_norad_cat_id": 33934,
        "meta_element_set_no": 999,
        "meta_rev_at_epoch": 88917,
        "meta_bstar": 0.00088149,
        "meta_mean_motion_dot": 4.137e-05,
        "meta_mean_motion_ddot": 0,
        "tle_line1": "1 33934U 93036EP  25358.95919852  .00004137  00000+0  88149-3 0  9991",
        "tle_line2": "2 33934  74.0379  77.2891 0015107 200.8516 159.2035 14.59204416889178"
      },
      "geometry": {
        "type": "Point",
        "coordinates": [
          -97.29494867515932,
          -20.893450375062287
        ]
      }
    },
    {
      "type": "Feature",
      "properties": {
        "norad_id": 33936,
        "name": "COSMOS 2251 DEB",
        "group": "cosmos-2251-debris",
        "lat": -2.1755321795571447,
        "lon": -166.10753317341454,
        "alt_km": 676.8644904545126,
        "timestamp": "2025-12-25T09:48:52.682253+00:00",
        "meta_object_name": "COSMOS 2251 DEB",
        "meta_object_id": "1993-036ER",
        "meta_epoch": "2025-12-25T02:24:27.152064",
        "meta_mean_motion": 14.60343392,
        "meta_eccentricity": 0.0026716,
        "meta_inclination": 74.018,
        "meta_ra_of_asc_node": 13.8583,
        "meta_arg_of_pericenter": 166.2657,
        "meta_mean_anomaly": 193.9241,
        "meta_ephemeris_type": 0,
        "meta_classification_type": "U",
        "meta_norad_cat_id": 33936,
        "meta_element_set_no": 999,
        "meta_rev_at_epoch": 89070,
        "meta_bstar": 0.00066624,
        "meta_mean_motion_dot": 3.209e-05,
        "meta_mean_motion_ddot": 0,
        "tle_line1": "1 33936U 93036ER  25359.10031426  .00003209  00000+0  66624-3 0  9996",
        "tle_line2": "2 33936  74.0180  13.8583 0026716 166.2657 193.9241 14.60343392890707"
      },
      "geometry": {
        "type": "Point",
        "coordinates": [
          -166.10753317341454,
          -2.1755321795571447
        ]
      }
    },
    {
      "type": "Feature",
      "properties": {
        "norad_id": 33938,
        "name": "COSMOS 2251 DEB",
        "group": "cosmos-2251-debris",
        "lat": 37.63564024803083,
        "lon": -9.223244116348152,
        "alt_km": 739.6133875214118,
        "timestamp": "2025-12-25T09:48:52.682263+00:00",
        "meta_object_name": "COSMOS 2251 DEB",
        "meta_object_id": "1993-036ET",
        "meta_epoch": "2025-12-24T23:57:21.360096",
        "meta_mean_motion": 14.46829587,
        "meta_eccentricity": 0.0016798,
        "meta_inclination": 74.0436,
        "meta_ra_of_asc_node": 184.2888,
        "meta_arg_of_pericenter": 265.4764,
        "meta_mean_anomaly": 256.4587,
        "meta_ephemeris_type": 0,
        "meta_classification_type": "U",
        "meta_norad_cat_id": 33938,
        "meta_element_set_no": 999,
        "meta_rev_at_epoch": 88577,
        "meta_bstar": 0.00043047,
        "meta_mean_motion_dot": 1.536e-05,
        "meta_mean_motion_ddot": 0,
        "tle_line1": "1 33938U 93036ET  25358.99816389  .00001536  00000+0  43047-3 0  9998",
        "tle_line2": "2 33938  74.0436 184.2888 0016798 265.4764 256.4587 14.46829587885772"
      },
      "geometry": {
        "type": "Point",
        "coordinates": [
          -9.223244116348152,
          37.63564024803083
        ]
      }
    }
  ]
}